34 34
test_kuiper 448
1 00449U 00000ABC 00001.00000000  .00000000  00000-0  00000+0 0    00
2 00449  52.0000 137.6471 0000001   0.0000  68.8235 14.80000000    01
test_kuiper 449
1 00450U 00000ABC 00001.00000000  .00000000  00000-0  00000+0 0    02
2 00450  52.0000 137.6471 0000001   0.0000  79.4118 14.80000000    01
test_kuiper 450
1 00451U 00000ABC 00001.00000000  .00000000  00000-0  00000+0 0    03
2 00451  52.0000 137.6471 0000001   0.0000  90.0000 14.80000000    01
test_kuiper 451
1 00452U 00000ABC 00001.00000000  .00000000  00000-0  00000+0 0    04
2 00452  52.0000 137.6471 0000001   0.0000 100.5882 14.80000000    07
test_kuiper 452
1 00453U 00000ABC 00001.00000000  .00000000  00000-0  00000+0 0    05
2 00453  52.0000 137.6471 0000001   0.0000 111.1765 14.80000000    06
test_kuiper 453
1 00454U 00000ABC 00001.00000000  .00000000  00000-0  00000+0 0    06
2 00454  52.0000 137.6471 0000001   0.0000 121.7647 14.80000000    03
test_kuiper 454
1 00455U 00000ABC 00001.00000000  .00000000  00000-0  00000+0 0    07
2 00455  52.0000 137.6471 0000001   0.0000 132.3529 14.80000000    01
test_kuiper 455
1 00456U 00000ABC 00001.00000000  .00000000  00000-0  00000+0 0    08
2 00456  52.0000 137.6471 0000001   0.0000 142.9412 14.80000000    00
test_kuiper 456
1 00457U 00000ABC 00001.00000000  .00000000  00000-0  00000+0 0    09
2 00457  52.0000 137.6471 0000001   0.0000 153.5294 14.80000000    07
test_kuiper 457
1 00458U 00000ABC 00001.00000000  .00000000  00000-0  00000+0 0    00
2 00458  52.0000 137.6471 0000001   0.0000 164.1176 14.80000000    05
test_kuiper 458
1 00459U 00000ABC 00001.00000000  .00000000  00000-0  00000+0 0    01
2 00459  52.0000 137.6471 0000001   0.0000 174.7059 14.80000000    03
test_kuiper 459
1 00460U 00000ABC 00001.00000000  .00000000  00000-0  00000+0 0    03
2 00460  52.0000 137.6471 0000001   0.0000 185.2941 14.80000000    02
test_kuiper 460
1 00461U 00000ABC 00001.00000000  .00000000  00000-0  00000+0 0    04
2 00461  52.0000 137.6471 0000001   0.0000 195.8824 14.80000000    00
test_kuiper 461
1 00462U 00000ABC 00001.00000000  .00000000  00000-0  00000+0 0    05
2 00462  52.0000 137.6471 0000001   0.0000 206.4706 14.80000000    09
test_kuiper 462
1 00463U 00000ABC 00001.00000000  .00000000  00000-0  00000+0 0    06
2 00463  52.0000 137.6471 0000001   0.0000 217.0588 14.80000000    06
test_kuiper 463
1 00464U 00000ABC 00001.00000000  .00000000  00000-0  00000+0 0    07
2 00464  52.0000 137.6471 0000001   0.0000 227.6471 14.80000000    05
test_kuiper 464
1 00465U 00000ABC 00001.00000000  .00000000  00000-0  00000+0 0    08
2 00465  52.0000 137.6471 0000001   0.0000 238.2353 14.80000000    03
test_kuiper 465
1 00466U 00000ABC 00001.00000000  .00000000  00000-0  00000+0 0    09
2 00466  52.0000 137.6471 0000001   0.0000 248.8235 14.80000000    00
test_kuiper 466
1 00467U 00000ABC 00001.00000000  .00000000  00000-0  00000+0 0    00
2 00467  52.0000 137.6471 0000001   0.0000 259.4118 14.80000000    09
test_kuiper 467
1 00468U 00000ABC 00001.00000000  .00000000  00000-0  00000+0 0    01
2 00468  52.0000 137.6471 0000001   0.0000 270.0000 14.80000000    09
test_kuiper 468
1 00469U 00000ABC 00001.00000000  .00000000  00000-0  00000+0 0    02
2 00469  52.0000 137.6471 0000001   0.0000 280.5882 14.80000000    04
test_kuiper 469
1 00470U 00000ABC 00001.00000000  .00000000  00000-0  00000+0 0    04
2 00470  52.0000 137.6471 0000001   0.0000 291.1765 14.80000000    04
test_kuiper 470
1 00471U 00000ABC 00001.00000000  .00000000  00000-0  00000+0 0    05
2 00471  52.0000 137.6471 0000001   0.0000 301.7647 14.80000000    02
test_kuiper 471
1 00472U 00000ABC 00001.00000000  .00000000  00000-0  00000+0 0    06
2 00472  52.0000 137.6471 0000001   0.0000 312.3529 14.80000000    00
test_kuiper 472
1 00473U 00000ABC 00001.00000000  .00000000  00000-0  00000+0 0    07
2 00473  52.0000 137.6471 0000001   0.0000 322.9412 14.80000000    09
test_kuiper 473
1 00474U 00000ABC 00001.00000000  .00000000  00000-0  00000+0 0    08
2 00474  52.0000 137.6471 0000001   0.0000 333.5294 14.80000000    06
test_kuiper 474
1 00475U 00000ABC 00001.00000000  .00000000  00000-0  00000+0 0    09
2 00475  52.0000 137.6471 0000001   0.0000 344.1176 14.80000000    04
test_kuiper 475
1 00476U 00000ABC 00001.00000000  .00000000  00000-0  00000+0 0    00
2 00476  52.0000 137.6471 0000001   0.0000 354.7059 14.80000000    02
test_kuiper 476
1 00477U 00000ABC 00001.00000000  .00000000  00000-0  00000+0 0    01
2 00477  52.0000 148.2353 0000001   0.0000   0.0000 14.80000000    07
test_kuiper 477
1 00478U 00000ABC 00001.00000000  .00000000  00000-0  00000+0 0    02
2 00478  52.0000 148.2353 0000001   0.0000  10.5882 14.80000000    02
test_kuiper 478
1 00479U 00000ABC 00001.00000000  .00000000  00000-0  00000+0 0    03
2 00479  52.0000 148.2353 0000001   0.0000  21.1765 14.80000000    01
test_kuiper 479
1 00480U 00000ABC 00001.00000000  .00000000  00000-0  00000+0 0    05
2 00480  52.0000 148.2353 0000001   0.0000  31.7647 14.80000000    09
test_kuiper 480
1 00481U 00000ABC 00001.00000000  .00000000  00000-0  00000+0 0    06
2 00481  52.0000 148.2353 0000001   0.0000  42.3529 14.80000000    07
test_kuiper 481
1 00482U 00000ABC 00001.00000000  .00000000  00000-0  00000+0 0    07
2 00482  52.0000 148.2353 0000001   0.0000  52.9412 14.80000000    06
test_kuiper 482
1 00483U 00000ABC 00001.00000000  .00000000  00000-0  00000+0 0    08
2 00483  52.0000 148.2353 0000001   0.0000  63.5294 14.80000000    03
test_kuiper 483
1 00484U 00000ABC 00001.00000000  .00000000  00000-0  00000+0 0    09
2 00484  52.0000 148.2353 0000001   0.0000  74.1176 14.80000000    01
test_kuiper 484
1 00485U 00000ABC 00001.00000000  .00000000  00000-0  00000+0 0    00
2 00485  52.0000 148.2353 0000001   0.0000  84.7059 14.80000000    09
test_kuiper 485
1 00486U 00000ABC 00001.00000000  .00000000  00000-0  00000+0 0    01
2 00486  52.0000 148.2353 0000001   0.0000  95.2941 14.80000000    07
test_kuiper 486
1 00487U 00000ABC 00001.00000000  .00000000  00000-0  00000+0 0    02
2 00487  52.0000 148.2353 0000001   0.0000 105.8824 14.80000000    06
test_kuiper 487
1 00488U 00000ABC 00001.00000000  .00000000  00000-0  00000+0 0    03
2 00488  52.0000 148.2353 0000001   0.0000 116.4706 14.80000000    04
test_kuiper 488
1 00489U 00000ABC 00001.00000000  .00000000  00000-0  00000+0 0    04
2 00489  52.0000 148.2353 0000001   0.0000 127.0588 14.80000000    01
test_kuiper 489
1 00490U 00000ABC 00001.00000000  .00000000  00000-0  00000+0 0    06
2 00490  52.0000 148.2353 0000001   0.0000 137.6471 14.80000000    01
test_kuiper 490
1 00491U 00000ABC 00001.00000000  .00000000  00000-0  00000+0 0    07
2 00491  52.0000 148.2353 0000001   0.0000 148.2353 14.80000000    09
test_kuiper 491
1 00492U 00000ABC 00001.00000000  .00000000  00000-0  00000+0 0    08
2 00492  52.0000 148.2353 0000001   0.0000 158.8235 14.80000000    06
test_kuiper 492
1 00493U 00000ABC 00001.00000000  .00000000  00000-0  00000+0 0    09
2 00493  52.0000 148.2353 0000001   0.0000 169.4118 14.80000000    05
test_kuiper 493
1 00494U 00000ABC 00001.00000000  .00000000  00000-0  00000+0 0    00
2 00494  52.0000 148.2353 0000001   0.0000 180.0000 14.80000000    05
test_kuiper 494
1 00495U 00000ABC 00001.00000000  .00000000  00000-0  00000+0 0    01
2 00495  52.0000 148.2353 0000001   0.0000 190.5882 14.80000000    00
test_kuiper 495
1 00496U 00000ABC 00001.00000000  .00000000  00000-0  00000+0 0    02
2 00496  52.0000 148.2353 0000001   0.0000 201.1765 14.80000000    00
test_kuiper 496
1 00497U 00000ABC 00001.00000000  .00000000  00000-0  00000+0 0    03
2 00497  52.0000 148.2353 0000001   0.0000 211.7647 14.80000000    07
test_kuiper 497
1 00498U 00000ABC 00001.00000000  .00000000  00000-0  00000+0 0    04
2 00498  52.0000 148.2353 0000001   0.0000 222.3529 14.80000000    05
test_kuiper 498
1 00499U 00000ABC 00001.00000000  .00000000  00000-0  00000+0 0    05
2 00499  52.0000 148.2353 0000001   0.0000 232.9412 14.80000000    04
test_kuiper 499
1 00500U 00000ABC 00001.00000000  .00000000  00000-0  00000+0 0    08
2 00500  52.0000 148.2353 0000001   0.0000 243.5294 14.80000000    03
test_kuiper 500
1 00501U 00000ABC 00001.00000000  .00000000  00000-0  00000+0 0    09
2 00501  52.0000 148.2353 0000001   0.0000 254.1176 14.80000000    01
test_kuiper 501
1 00502U 00000ABC 00001.00000000  .00000000  00000-0  00000+0 0    00
2 00502  52.0000 148.2353 0000001   0.0000 264.7059 14.80000000    09
test_kuiper 502
1 00503U 00000ABC 00001.00000000  .00000000  00000-0  00000+0 0    01
2 00503  52.0000 148.2353 0000001   0.0000 275.2941 14.80000000    07
test_kuiper 503
1 00504U 00000ABC 00001.00000000  .00000000  00000-0  00000+0 0    02
2 00504  52.0000 148.2353 0000001   0.0000 285.8824 14.80000000    05
test_kuiper 504
1 00505U 00000ABC 00001.00000000  .00000000  00000-0  00000+0 0    03
2 00505  52.0000 148.2353 0000001   0.0000 296.4706 14.80000000    03
test_kuiper 505
1 00506U 00000ABC 00001.00000000  .00000000  00000-0  00000+0 0    04
2 00506  52.0000 148.2353 0000001   0.0000 307.0588 14.80000000    01
test_kuiper 506
1 00507U 00000ABC 00001.00000000  .00000000  00000-0  00000+0 0    05
2 00507  52.0000 148.2353 0000001   0.0000 317.6471 14.80000000    00
test_kuiper 507
1 00508U 00000ABC 00001.00000000  .00000000  00000-0  00000+0 0    06
2 00508  52.0000 148.2353 0000001   0.0000 328.2353 14.80000000    08
test_kuiper 508
1 00509U 00000ABC 00001.00000000  .00000000  00000-0  00000+0 0    07
2 00509  52.0000 148.2353 0000001   0.0000 338.8235 14.80000000    05
test_kuiper 509
1 00510U 00000ABC 00001.00000000  .00000000  00000-0  00000+0 0    09
2 00510  52.0000 148.2353 0000001   0.0000 349.4118 14.80000000    05
test_kuiper 510
1 00511U 00000ABC 00001.00000000  .00000000  00000-0  00000+0 0    00
2 00511  52.0000 158.8235 0000001   0.0000   5.2941 14.80000000    03
test_kuiper 511
1 00512U 00000ABC 00001.00000000  .00000000  00000-0  00000+0 0    01
2 00512  52.0000 158.8235 0000001   0.0000  15.8824 14.80000000    01
